[{"OBJECT_NAME":"YAOGAN-36 04C","OBJECT_ID":"2022-171E","EPOCH":"2026-03-09T18:55:44.889600","MEAN_MOTION":15.29852307,"ECCENTRICITY":0.00066848,"INCLINATION":34.9797,"RA_OF_ASC_NODE":96.6578,"ARG_OF_PERICENTER":275.3761,"MEAN_ANOMALY":84.6192,"EPHEMERIS_TYPE":0,"CLASSIFICATION_TYPE":"U","NORAD_CAT_ID":54750,"ELEMENT_SET_NO":999,"REV_AT_EPOCH":18024,"BSTAR":0.00054591902,"MEAN_MOTION_DOT":0.00016196,"MEAN_MOTION_DDOT":0},{"OBJECT_NAME":"STARLINK-32694","OBJECT_ID":"2025-003H","EPOCH":"2026-03-09T22:39:28.055808","MEAN_MOTION":15.27608117,"ECCENTRICITY":0.00013826,"INCLINATION":42.9977,"RA_OF_ASC_NODE":287.2605,"ARG_OF_PERICENTER":276.9761,"MEAN_ANOMALY":83.0933,"EPHEMERIS_TYPE":0,"CLASSIFICATION_TYPE":"U","NORAD_CAT_ID":62494,"ELEMENT_SET_NO":999,"REV_AT_EPOCH":6671,"BSTAR":0.0015065164,"MEAN_MOTION_DOT":0.00041463,"MEAN_MOTION_DDOT":0}]
